[{"OBJECT_NAME":"ONEWEB-0058","OBJECT_ID":"2020-008AG","EPOCH":"2026-02-04T02:52:08.400288","MEAN_MOTION":13.10377963,"ECCENTRICITY":0.00016631,"INCLINATION":87.8757,"RA_OF_ASC_NODE":62.7985,"ARG_OF_PERICENTER":100.4056,"MEAN_ANOMALY":259.7259,"EPHEMERIS_TYPE":0,"CLASSIFICATION_TYPE":"U","NORAD_CAT_ID":45161,"ELEMENT_SET_NO":999,"REV_AT_EPOCH":29099,"BSTAR":0.00011546623,"MEAN_MOTION_DOT":5.3e-7,"MEAN_MOTION_DDOT":0},{"OBJECT_NAME":"ONEWEB-0059","OBJECT_ID":"2020-008AH","EPOCH":"2026-02-04T02:47:09.368160","MEAN_MOTION":13.10376695,"ECCENTRICITY":0.00017188,"INCLINATION":87.8754,"RA_OF_ASC_NODE":62.7999,"ARG_OF_PERICENTER":93.0021,"MEAN_ANOMALY":267.1303,"EPHEMERIS_TYPE":0,"CLASSIFICATION_TYPE":"U","NORAD_CAT_ID":45162,"ELEMENT_SET_NO":999,"REV_AT_EPOCH":29089,"BSTAR":-0.0005077585,"MEAN_MOTION_DOT":-1.65e-6,"MEAN_MOTION_DDOT":0},{"OBJECT_NAME":"ONEWEB-0062","OBJECT_ID":"2020-008AJ","EPOCH":"2026-02-04T03:24:14.507712","MEAN_MOTION":13.1037247,"ECCENTRICITY":0.00015967,"INCLINATION":87.8756,"RA_OF_ASC_NODE":62.7738,"ARG_OF_PERICENTER":107.2796,"MEAN_ANOMALY":252.8506,"EPHEMERIS_TYPE":0,"CLASSIFICATION_TYPE":"U","NORAD_CAT_ID":45163,"ELEMENT_SET_NO":999,"REV_AT_EPOCH":29076,"BSTAR":0.0016843462,"MEAN_MOTION_DOT":6.01e-6,"MEAN_MOTION_DDOT":0},{"OBJECT_NAME":"ONEWEB-0065","OBJECT_ID":"2020-008AK","EPOCH":"2026-02-04T07:48:08.464608","MEAN_MOTION":13.10371791,"ECCENTRICITY":0.00021834,"INCLINATION":87.8748,"RA_OF_ASC_NODE":62.7495,"ARG_OF_PERICENTER":88.5577,"MEAN_ANOMALY":271.5801,"EPHEMERIS_TYPE":0,"CLASSIFICATION_TYPE":"U","NORAD_CAT_ID":45164,"ELEMENT_SET_NO":999,"REV_AT_EPOCH":29048,"BSTAR":-0.0016394713,"MEAN_MOTION_DOT":-5.6e-6,"MEAN_MOTION_DDOT":0},{"OBJECT_NAME":"ONEWEB-0066","OBJECT_ID":"2020-020A","EPOCH":"2026-02-04T07:32:09.642336","MEAN_MOTION":13.11523174,"ECCENTRICITY":7.255e-5,"INCLINATION":87.8826,"RA_OF_ASC_NODE":47.5036,"ARG_OF_PERICENTER":88.2917,"MEAN_ANOMALY":271.8294,"EPHEMERIS_TYPE":0,"CLASSIFICATION_TYPE":"U","NORAD_CAT_ID":45424,"ELEMENT_SET_NO":999,"REV_AT_EPOCH":28526,"BSTAR":-0.057745009,"MEAN_MOTION_DOT":-0.00020439,"MEAN_MOTION_DDOT":0},{"OBJECT_NAME":"ONEWEB-0067","OBJECT_ID":"2020-020B","EPOCH":"2026-02-04T01:06:37.942272","MEAN_MOTION":13.11415234,"ECCENTRICITY":0.00018965,"INCLINATION":87.8829,"RA_OF_ASC_NODE":47.4647,"ARG_OF_PERICENTER":83.1653,"MEAN_ANOMALY":276.9691,"EPHEMERIS_TYPE":0,"CLASSIFICATION_TYPE":"U","NORAD_CAT_ID":45425,"ELEMENT_SET_NO":999,"REV_AT_EPOCH":28528,"BSTAR":-0.0010040091,"MEAN_MOTION_DOT":-3.43e-6,"MEAN_MOTION_DDOT":0},{"OBJECT_NAME":"ONEWEB-0080","OBJECT_ID":"2020-020C","EPOCH":"2026-02-04T01:19:52.340160","MEAN_MOTION":13.11420074,"ECCENTRICITY":0.0001608,"INCLINATION":87.8815,"RA_OF_ASC_NODE":47.5547,"ARG_OF_PERICENTER":99.4544,"MEAN_ANOMALY":260.6766,"EPHEMERIS_TYPE":0,"CLASSIFICATION_TYPE":"U","NORAD_CAT_ID":45426,"ELEMENT_SET_NO":999,"REV_AT_EPOCH":28525,"BSTAR":0.0022083207,"MEAN_MOTION_DOT":7.95e-6,"MEAN_MOTION_DDOT":0},{"OBJECT_NAME":"ONEWEB-0090","OBJECT_ID":"2020-020D","EPOCH":"2026-02-04T01:48:08.436096","MEAN_MOTION":13.11419449,"ECCENTRICITY":0.00018306,"INCLINATION":87.8818,"RA_OF_ASC_NODE":47.5524,"ARG_OF_PERICENTER":92.2298,"MEAN_ANOMALY":267.904,"EPHEMERIS_TYPE":0,"CLASSIFICATION_TYPE":"U","NORAD_CAT_ID":45427,"ELEMENT_SET_NO":999,"REV_AT_EPOCH":28522,"BSTAR":-0.00017867283,"MEAN_MOTION_DOT":-5.1e-7,"MEAN_MOTION_DDOT":0},{"OBJECT_NAME":"ONEWEB-0061","OBJECT_ID":"2020-020E","EPOCH":"2026-02-04T06:13:52.038912","MEAN_MOTION":13.11413888,"ECCENTRICITY":0.00018021,"INCLINATION":87.8824,"RA_OF_ASC_NODE":47.4997,"ARG_OF_PERICENTER":91.2052,"MEAN_ANOMALY":268.9283,"EPHEMERIS_TYPE":0,"CLASSIFICATION_TYPE":"U","NORAD_CAT_ID":45428,"ELEMENT_SET_NO":999,"REV_AT_EPOCH":28520,"BSTAR":0.0011330981,"MEAN_MOTION_DOT":4.14e-6,"MEAN_MOTION_DDOT":0},{"OBJECT_NAME":"ONEWEB-0081","OBJECT_ID":"2020-020F","EPOCH":"2026-02-04T02:07:28.642080","MEAN_MOTION":13.11417598,"ECCENTRICITY":0.0001747,"INCLINATION":87.8821,"RA_OF_ASC_NODE":47.5492,"ARG_OF_PERICENTER":83.8767,"MEAN_ANOMALY":276.256,"EPHEMERIS_TYPE":0,"CLASSIFICATION_TYPE":"U","NORAD_CAT_ID":45429,"ELEMENT_SET_NO":999,"REV_AT_EPOCH":28529,"BSTAR":0.00086010376,"MEAN_MOTION_DOT":3.18e-6,"MEAN_MOTION_DDOT":0},{"OBJECT_NAME":"ONEWEB-0069","OBJECT_ID":"2020-020G","EPOCH":"2026-02-04T01:51:36.108864","MEAN_MOTION":13.11418019,"ECCENTRICITY":0.00018098,"INCLINATION":87.8825,"RA_OF_ASC_NODE":47.5471,"ARG_OF_PERICENTER":88.3961,"MEAN_ANOMALY":271.7374,"EPHEMERIS_TYPE":0,"CLASSIFICATION_TYPE":"U","NORAD_CAT_ID":45430,"ELEMENT_SET_NO":999,"REV_AT_EPOCH":28522,"BSTAR":-3.0629073e-5,"MEAN_MOTION_DOT":2.0e-8,"MEAN_MOTION_DDOT":0},{"OBJECT_NAME":"ONEWEB-0031","OBJECT_ID":"2020-020H","EPOCH":"2026-02-04T01:11:18.112416","MEAN_MOTION":13.11414538,"ECCENTRICITY":0.00017674,"INCLINATION":87.8814,"RA_OF_ASC_NODE":47.5729,"ARG_OF_PERICENTER":97.3309,"MEAN_ANOMALY":262.8019,"EPHEMERIS_TYPE":0,"CLASSIFICATION_TYPE":"U","NORAD_CAT_ID":45431,"ELEMENT_SET_NO":999,"REV_AT_EPOCH":28520,"BSTAR":-0.0012482736,"MEAN_MOTION_DOT":-4.3e-6,"MEAN_MOTION_DDOT":0},{"OBJECT_NAME":"ONEWEB-0027","OBJECT_ID":"2020-020J","EPOCH":"2026-02-03T12:09:07.999776","MEAN_MOTION":13.1765029,"ECCENTRICITY":0.00020225,"INCLINATION":87.9101,"RA_OF_ASC_NODE":32.3997,"ARG_OF_PERICENTER":99.5653,"MEAN_ANOMALY":260.5707,"EPHEMERIS_TYPE":0,"CLASSIFICATION_TYPE":"U","NORAD_CAT_ID":45432,"ELEMENT_SET_NO":999,"REV_AT_EPOCH":28875,"BSTAR":-4.0195509e-5,"MEAN_MOTION_DOT":-3.0e-8,"MEAN_MOTION_DDOT":0},{"OBJECT_NAME":"ONEWEB-0064","OBJECT_ID":"2020-020K","EPOCH":"2026-02-04T01:08:51.603936","MEAN_MOTION":13.11414714,"ECCENTRICITY":0.00018518,"INCLINATION":87.8813,"RA_OF_ASC_NODE":47.5632,"ARG_OF_PERICENTER":96.2718,"MEAN_ANOMALY":263.8621,"EPHEMERIS_TYPE":0,"CLASSIFICATION_TYPE":"U","NORAD_CAT_ID":45433,"ELEMENT_SET_NO":999,"REV_AT_EPOCH":28523,"BSTAR":-0.0010834812,"MEAN_MOTION_DOT":-3.71e-6,"MEAN_MOTION_DDOT":0},{"OBJECT_NAME":"ONEWEB-0018","OBJECT_ID":"2020-020L","EPOCH":"2026-02-04T01:55:15.154464","MEAN_MOTION":13.11420101,"ECCENTRICITY":0.00016818,"INCLINATION":87.8824,"RA_OF_ASC_NODE":47.5509,"ARG_OF_PERICENTER":89.4902,"MEAN_ANOMALY":270.6419,"EPHEMERIS_TYPE":0,"CLASSIFICATION_TYPE":"U","NORAD_CAT_ID":45434,"ELEMENT_SET_NO":999,"REV_AT_EPOCH":28518,"BSTAR":0.00054897379,"MEAN_MOTION_DOT":2.07e-6,"MEAN_MOTION_DDOT":0},{"OBJECT_NAME":"ONEWEB-0083","OBJECT_ID":"2020-020M","EPOCH":"2026-02-04T07:11:26.500992","MEAN_MOTION":13.11419302,"ECCENTRICITY":0.00017909,"INCLINATION":87.8824,"RA_OF_ASC_NODE":47.495,"ARG_OF_PERICENTER":92.452,"MEAN_ANOMALY":267.6813,"EPHEMERIS_TYPE":0,"CLASSIFICATION_TYPE":"U","NORAD_CAT_ID":45435,"ELEMENT_SET_NO":999,"REV_AT_EPOCH":28525,"BSTAR":-0.00068186628,"MEAN_MOTION_DOT":-2.29e-6,"MEAN_MOTION_DDOT":0},{"OBJECT_NAME":"ONEWEB-0095","OBJECT_ID":"2020-020N","EPOCH":"2026-02-04T06:58:11.973504","MEAN_MOTION":13.11416517,"ECCENTRICITY":0.00026167,"INCLINATION":87.8817,"RA_OF_ASC_NODE":47.5064,"ARG_OF_PERICENTER":94.2814,"MEAN_ANOMALY":265.8613,"EPHEMERIS_TYPE":0,"CLASSIFICATION_TYPE":"U","NORAD_CAT_ID":45436,"ELEMENT_SET_NO":999,"REV_AT_EPOCH":28525,"BSTAR":-0.0015705,"MEAN_MOTION_DOT":-5.44e-6,"MEAN_MOTION_DDOT":0}]
