ONEWEB-0058             
1 45161U 20008AG  26035.11954167  .00000053  00000+0  11547-3 0  9995
2 45161  87.8757  62.7985 0001663 100.4056 259.7259 13.10377963290998
ONEWEB-0059             
1 45162U 20008AH  26035.11608065 -.00000165  00000+0 -50776-3 0  9992
2 45162  87.8754  62.7999 0001718  93.0021 267.1303 13.10376695290894
ONEWEB-0062             
1 45163U 20008AJ  26035.14183458  .00000601  00000+0  16843-2 0  9999
2 45163  87.8756  62.7738 0001596 107.2796 252.8506 13.10372470290768
ONEWEB-0065             
1 45164U 20008AK  26035.32509797 -.00000560  00000+0 -16395-2 0  9996
2 45164  87.8748  62.7495 0002183  88.5577 271.5801 13.10371791290481
ONEWEB-0066             
1 45424U 20020A   26035.31400049 -.00020439  00000+0 -57745-1 0  9998
2 45424  87.8826  47.5036 0000725  88.2917 271.8294 13.11523174285268
ONEWEB-0067             
1 45425U 20020B   26035.04627248 -.00000343  00000+0 -10040-2 0  9991
2 45425  87.8829  47.4647 0001896  83.1653 276.9691 13.11415234285286
ONEWEB-0080             
1 45426U 20020C   26035.05546690  .00000795  00000+0  22083-2 0  9993
2 45426  87.8815  47.5547 0001608  99.4544 260.6766 13.11420074285250
ONEWEB-0090             
1 45427U 20020D   26035.07509764 -.00000051  00000+0 -17867-3 0  9999
2 45427  87.8818  47.5524 0001830  92.2298 267.9040 13.11419449285229
ONEWEB-0061             
1 45428U 20020E   26035.25963008  .00000414  00000+0  11331-2 0  9995
2 45428  87.8824  47.4997 0001802  91.2052 268.9283 13.11413888285205
ONEWEB-0081             
1 45429U 20020F   26035.08852595  .00000318  00000+0  86010-3 0  9995
2 45429  87.8821  47.5492 0001747  83.8767 276.2560 13.11417598285293
ONEWEB-0069             
1 45430U 20020G   26035.07750126  .00000002  00000+0 -30629-4 0  9990
2 45430  87.8825  47.5471 0001809  88.3961 271.7374 13.11418019285226
ONEWEB-0031             
1 45431U 20020H   26035.04951519 -.00000430  00000+0 -12483-2 0  9999
2 45431  87.8814  47.5729 0001767  97.3309 262.8019 13.11414538285207
ONEWEB-0027             
1 45432U 20020J   26034.50634259 -.00000003  00000+0 -40196-4 0  9999
2 45432  87.9101  32.3997 0002022  99.5653 260.5707 13.17650290288753
ONEWEB-0064             
1 45433U 20020K   26035.04781949 -.00000371  00000+0 -10835-2 0  9992
2 45433  87.8813  47.5632 0001851  96.2718 263.8621 13.11414714285236
ONEWEB-0018             
1 45434U 20020L   26035.08003651  .00000207  00000+0  54897-3 0  9997
2 45434  87.8824  47.5509 0001681  89.4902 270.6419 13.11420101285184
ONEWEB-0083             
1 45435U 20020M   26035.29961228 -.00000229  00000+0 -68187-3 0  9997
2 45435  87.8824  47.4950 0001790  92.4520 267.6813 13.11419302285258
ONEWEB-0095             
1 45436U 20020N   26035.29041636 -.00000544  00000+0 -15705-2 0  9997
2 45436  87.8817  47.5064 0002616  94.2814 265.8613 13.11416517285255
